{"type": "FeatureCollection", "features": [ {"type": "Feature", "properties": {"norad_id": 36668, "name": "FENGYUN 1C DEB", "group": "fengyun-1c-debris", "lat": -57.65723035562389, "lon": 173.64784377389043, "alt_km": 820.9944492767709, "timestamp": "2025-12-23T11:34:48.450883+00:00", "meta": {"OBJECT_NAME": "FENGYUN 1C DEB", "OBJECT_ID": "1999-025DYN", "EPOCH": "2025-12-19T06:21:32.105088", "MEAN_MOTION": 14.15409146, "ECCENTRICITY": 0.0051621, "INCLINATION": 98.6081, "RA_OF_ASC_NODE": 3.4166, "ARG_OF_PERICENTER": 206.8529, "MEAN_ANOMALY": 152.9972, "EPHEMERIS_TYPE": 0, "CLASSIFICATION_TYPE": "U", "NORAD_CAT_ID": 36668, "ELEMENT_SET_NO": 999, "REV_AT_EPOCH": 57510, "BSTAR": 0.00046927, "MEAN_MOTION_DOT": 8.85e-06, "MEAN_MOTION_DDOT": 0}, "tle": {"line1": "1 36668U 99025DYN 25353.26495492  .00000885  00000+0  46927-3 0  9994", "line2": "2 36668  98.6081   3.4166 0051621 206.8529 152.9972 14.15409146575108"}}, "geometry": {"type": "Point", "coordinates": [173.64784377389043, -57.65723035562389]}}, {"type": "Feature", "properties": {"norad_id": 36676, "name": "FENGYUN 1C DEB", "group": "fengyun-1c-debris", "lat": -50.61154532242186, "lon": -91.88345817207734, "alt_km": 814.0112483352232, "timestamp": "2025-12-23T11:34:48.450893+00:00", "meta": {"OBJECT_NAME": "FENGYUN 1C DEB", "OBJECT_ID": "1999-025DYW", "EPOCH": "2025-12-12T12:03:08.237952", "MEAN_MOTION": 14.43199836, "ECCENTRICITY": 0.00955768, "INCLINATION": 98.7673, "RA_OF_ASC_NODE": 245.9859, "ARG_OF_PERICENTER": 132.3194, "MEAN_ANOMALY": 40.1509, "EPHEMERIS_TYPE": 0, "CLASSIFICATION_TYPE": "U", "NORAD_CAT_ID": 36676, "ELEMENT_SET_NO": 999, "REV_AT_EPOCH": 65062, "BSTAR": 0.00064689298, "MEAN_MOTION_DOT": 2.25e-05, "MEAN_MOTION_DDOT": 0}, "tle": {"line1": "1 36676U 99025DYW 25346.50217868  .00002250  00000+0  64689-3 0  9994", "line2": "2 36676  98.7673 245.9859 0095576 132.3194  40.1509 14.43199836650623"}}, "geometry": {"type": "Point", "coordinates": [-91.88345817207734, -50.61154532242186]}}, {"type": "Feature", "properties": {"norad_id": 36678, "name": "FENGYUN 1C DEB", "group": "fengyun-1c-debris", "lat": 65.50377526234838, "lon": 178.1361441796026, "alt_km": 854.82331497633, "timestamp": "2025-12-23T11:34:48.450902+00:00", "meta": {"OBJECT_NAME": "FENGYUN 1C DEB", "OBJECT_ID": "1999-025DYY", "EPOCH": "2025-11-26T04:26:16.761408", "MEAN_MOTION": 14.37944691, "ECCENTRICITY": 0.01523469, "INCLINATION": 98.2901, "RA_OF_ASC_NODE": 313.1233, "ARG_OF_PERICENTER": 42.409, "MEAN_ANOMALY": 318.8754, "EPHEMERIS_TYPE": 0, "CLASSIFICATION_TYPE": "U", "NORAD_CAT_ID": 36678, "ELEMENT_SET_NO": 999, "REV_AT_EPOCH": 64751, "BSTAR": 0.00045851479, "MEAN_MOTION_DOT": 1.539e-05, "MEAN_MOTION_DDOT": 0}, "tle": {"line1": "1 36678U 99025DYY 25330.18491622  .00001539  00000+0  45851-3 0  9994", "line2": "2 36678  98.2901 313.1233 0152346  42.4090 318.8754 14.37944691647514"}}, "geometry": {"type": "Point", "coordinates": [178.1361441796026, 65.50377526234838]}}, {"type": "Feature", "properties": {"norad_id": 36679, "name": "FENGYUN 1C DEB", "group": "fengyun-1c-debris", "lat": 75.30116346434069, "lon": -43.044929132113865, "alt_km": 810.0941093544725, "timestamp": "2025-12-23T11:34:48.450915+00:00", "meta": {"OBJECT_NAME": "FENGYUN 1C DEB", "OBJECT_ID": "1999-025DYZ", "EPOCH": "2025-12-12T05:06:20.489760", "MEAN_MOTION": 14.04635854, "ECCENTRICITY": 0.00860329, "INCLINATION": 98.8358, "RA_OF_ASC_NODE": 342.3526, "ARG_OF_PERICENTER": 94.9778, "MEAN_ANOMALY": 266.1218, "EPHEMERIS_TYPE": 0, "CLASSIFICATION_TYPE": "U", "NORAD_CAT_ID": 36679, "ELEMENT_SET_NO": 999, "REV_AT_EPOCH": 24541, "BSTAR": 0.00093240851, "MEAN_MOTION_DOT": 1.499e-05, "MEAN_MOTION_DDOT": 0}, "tle": {"line1": "1 36679U 99025DYZ 25346.21273715  .00001499  00000+0  93241-3 0  9998", "line2": "2 36679  98.8358 342.3526 0086032  94.9778 266.1218 14.04635854245414"}}, "geometry": {"type": "Point", "coordinates": [-43.044929132113865, 75.30116346434069]}}, {"type": "Feature", "properties": {"norad_id": 36680, "name": "FENGYUN 1C DEB", "group": "fengyun-1c-debris", "lat": -44.8829257158369, "lon": 160.6101877190705, "alt_km": 701.64781561984, "timestamp": "2025-12-23T11:34:48.450924+00:00", "meta": {"OBJECT_NAME": "FENGYUN 1C DEB", "OBJECT_ID": "1999-025DZA", "EPOCH": "2025-12-22T11:34:02.955360", "MEAN_MOTION": 14.18652391, "ECCENTRICITY": 0.0188614, "INCLINATION": 98.549, "RA_OF_ASC_NODE": 348.2609, "ARG_OF_PERICENTER": 221.1144, "MEAN_ANOMALY": 297.1069, "EPHEMERIS_TYPE": 0, "CLASSIFICATION_TYPE": "U", "NORAD_CAT_ID": 36680, "ELEMENT_SET_NO": 999, "REV_AT_EPOCH": 64435, "BSTAR": 0.00038606588, "MEAN_MOTION_DOT": 9.1e-06, "MEAN_MOTION_DDOT": 0}, "tle": {"line1": "1 36680U 99025DZA 25356.48197865  .00000910  00000+0  38607-3 0  9993", "line2": "2 36680  98.5490 348.2609 0188614 221.1144 297.1069 14.18652391644351"}}, "geometry": {"type": "Point", "coordinates": [160.6101877190705, -44.8829257158369]}}, {"type": "Feature", "properties": {"norad_id": 36681, "name": "FENGYUN 1C DEB", "group": "fengyun-1c-debris", "lat": 74.32011133366366, "lon": -151.20317771393644, "alt_km": 877.7562017077953, "timestamp": "2025-12-23T11:34:48.450934+00:00", "meta": {"OBJECT_NAME": "FENGYUN 1C DEB", "OBJECT_ID": "1999-025DZB", "EPOCH": "2025-12-10T18:18:12.275712", "MEAN_MOTION": 14.10256093, "ECCENTRICITY": 0.00454371, "INCLINATION": 98.6973, "RA_OF_ASC_NODE": 343.4508, "ARG_OF_PERICENTER": 355.1749, "MEAN_ANOMALY": 4.8979, "EPHEMERIS_TYPE": 0, "CLASSIFICATION_TYPE": "U", "NORAD_CAT_ID": 36681, "ELEMENT_SET_NO": 999, "REV_AT_EPOCH": 72730, "BSTAR": 0.00096687905, "MEAN_MOTION_DOT": 1.688e-05, "MEAN_MOTION_DDOT": 0}, "tle": {"line1": "1 36681U 99025DZB 25344.76264208  .00001688  00000+0  96688-3 0  9994", "line2": "2 36681  98.6973 343.4508 0045437 355.1749   4.8979 14.10256093727309"}}, "geometry": {"type": "Point", "coordinates": [-151.20317771393644, 74.32011133366366]}}, {"type": "Feature", "properties": {"norad_id": 36682, "name": "FENGYUN 1C DEB", "group": "fengyun-1c-debris", "lat": -29.97305044279091, "lon": 75.09279279162348, "alt_km": 868.5673004390819, "timestamp": "2025-12-23T11:34:48.450943+00:00", "meta": {"OBJECT_NAME": "FENGYUN 1C DEB", "OBJECT_ID": "1999-025DZC", "EPOCH": "2025-12-20T22:56:56.479200", "MEAN_MOTION": 13.70152348, "ECCENTRICITY": 0.023307, "INCLINATION": 98.4859, "RA_OF_ASC_NODE": 257.8007, "ARG_OF_PERICENTER": 255.3735, "MEAN_ANOMALY": 102.147, "EPHEMERIS_TYPE": 0, "CLASSIFICATION_TYPE": "U", "NORAD_CAT_ID": 36682, "ELEMENT_SET_NO": 999, "REV_AT_EPOCH": 61505, "BSTAR": 0.00076722, "MEAN_MOTION_DOT": 7.79e-06, "MEAN_MOTION_DDOT": 0}, "tle": {"line1": "1 36682U 99025DZC 25354.95620925  .00000779  00000+0  76722-3 0  9996", "line2": "2 36682  98.4859 257.8007 0233070 255.3735 102.1470 13.70152348615050"}}, "geometry": {"type": "Point", "coordinates": [75.09279279162348, -29.97305044279091]}}, {"type": "Feature", "properties": {"norad_id": 36684, "name": "FENGYUN 1C DEB", "group": "fengyun-1c-debris", "lat": -54.04347199443221, "lon": 105.14058752490149, "alt_km": 589.6016659561556, "timestamp": "2025-12-23T11:34:48.450952+00:00", "meta": {"OBJECT_NAME": "FENGYUN 1C DEB", "OBJECT_ID": "1999-025DZE", "EPOCH": "2025-12-21T05:17:41.042688", "MEAN_MOTION": 14.97175814, "ECCENTRICITY": 0.0018018, "INCLINATION": 99.4575, "RA_OF_ASC_NODE": 89.1224, "ARG_OF_PERICENTER": 79.4116, "MEAN_ANOMALY": 280.9129, "EPHEMERIS_TYPE": 0, "CLASSIFICATION_TYPE": "U", "NORAD_CAT_ID": 36684, "ELEMENT_SET_NO": 999, "REV_AT_EPOCH": 66028, "BSTAR": 0.003525, "MEAN_MOTION_DOT": 0.00041029, "MEAN_MOTION_DDOT": 0}, "tle": {"line1": "1 36684U 99025DZE 25355.22061392  .00041029  00000+0  35250-2 0  9999", "line2": "2 36684  99.4575  89.1224 0018018  79.4116 280.9129 14.97175814660280"}}, "geometry": {"type": "Point", "coordinates": [105.14058752490149, -54.04347199443221]}}, {"type": "Feature", "properties": {"norad_id": 36686, "name": "FENGYUN 1C DEB", "group": "fengyun-1c-debris", "lat": 31.494396790337387, "lon": 15.697974412076015, "alt_km": 680.9830825222361, "timestamp": "2025-12-23T11:34:48.450962+00:00", "meta": {"OBJECT_NAME": "FENGYUN 1C DEB", "OBJECT_ID": "1999-025DZG", "EPOCH": "2025-12-18T18:45:25.939872", "MEAN_MOTION": 14.77277529, "ECCENTRICITY": 0.01049018, "INCLINATION": 99.0004, "RA_OF_ASC_NODE": 184.8835, "ARG_OF_PERICENTER": 34.5536, "MEAN_ANOMALY": 326.243, "EPHEMERIS_TYPE": 0, "CLASSIFICATION_TYPE": "U", "NORAD_CAT_ID": 36686, "ELEMENT_SET_NO": 999, "REV_AT_EPOCH": 65941, "BSTAR": 0.00053831047, "MEAN_MOTION_DOT": 4.115e-05, "MEAN_MOTION_DDOT": 0}, "tle": {"line1": "1 36686U 99025DZG 25352.78155023  .00004115  00000+0  53831-3 0  9995", "line2": "2 36686  99.0004 184.8835 0104901  34.5536 326.2430 14.77277529659417"}}, "geometry": {"type": "Point", "coordinates": [15.697974412076015, 31.494396790337387]}}, {"type": "Feature", "properties": {"norad_id": 36687, "name": "FENGYUN 1C DEB", "group": "fengyun-1c-debris", "lat": 16.462610654511256, "lon": 80.89054275382655, "alt_km": 929.8731993053052, "timestamp": "2025-12-23T11:34:48.450971+00:00", "meta": {"OBJECT_NAME": "FENGYUN 1C DEB", "OBJECT_ID": "1999-025DZH", "EPOCH": "2025-12-17T23:51:08.993376", "MEAN_MOTION": 14.04533718, "ECCENTRICITY": 0.00903258, "INCLINATION": 98.7154, "RA_OF_ASC_NODE": 78.2194, "ARG_OF_PERICENTER": 250.4808, "MEAN_ANOMALY": 108.6587, "EPHEMERIS_TYPE": 0, "CLASSIFICATION_TYPE": "U", "NORAD_CAT_ID": 36687, "ELEMENT_SET_NO": 999, "REV_AT_EPOCH": 62796, "BSTAR": 6.2205267e-05, "MEAN_MOTION_DOT": 6e-07, "MEAN_MOTION_DDOT": 0}, "tle": {"line1": "1 36687U 99025DZH 25351.99385409  .00000060  00000+0  62205-4 0  9992", "line2": "2 36687  98.7154  78.2194 0090325 250.4808 108.6587 14.04533718627964"}}, "geometry": {"type": "Point", "coordinates": [80.89054275382655, 16.462610654511256]}}]}